start=new Date('2022-12-02T00:00:00.000Z').valueOf();
sats=[{"RCS_SIZE":"LARGE","TLE_LINE1":"1 48098U 21027G   22335.12933330  .00000429  00000-0  47706-4 0  9993","MEAN_MOTION_DDOT":"0.0000000000000","COUNTRY_CODE":"US","ELEMENT_SET_NO":"999","SEMIMAJOR_AXIS":"6925.330","MEAN_ELEMENT_THEORY":"SGP4","GP_ID":"219266462","ECCENTRICITY":"0.00014690","CENTER_NAME":"EARTH","APOAPSIS":"548.212","RA_OF_ASC_NODE":"124.2097","LAUNCH_DATE":"2021-04-07","OBJECT_TYPE":"PAYLOAD","OBJECT_ID":"2021-027G","MEAN_ANOMALY":"294.7282","MEAN_MOTION":"15.06406214","MEAN_MOTION_DOT":"0.00000429","EPHEMERIS_TYPE":"0","DECAY_DATE":null,"TIME_SYSTEM":"UTC","REF_FRAME":"TEME","BSTAR":"0.00004770600000","INCLINATION":"53.0535","FILE":"3677495","REV_AT_EPOCH":"9250","PERIOD":"95.592","OBJECT_NAME":"STARLINK-2421","CLASSIFICATION_TYPE":"U","SITE":"AFETR","PERIAPSIS":"546.177","ARG_OF_PERICENTER":"65.3860","TLE_LINE2":"2 48098  53.0535 124.2097 0001469  65.3860 294.7282 15.06406214 92504","NORAD_CAT_ID":"48098","EPOCH":"2022-12-01T03:06:14.397120"},{"REF_FRAME":"TEME","TIME_SYSTEM":"UTC","MEAN_MOTION_DOT":"0.00003323","EPHEMERIS_TYPE":"0","DECAY_DATE":null,"BSTAR":"0.00024181000000","CLASSIFICATION_TYPE":"U","PERIOD":"95.592","FILE":"3678231","REV_AT_EPOCH":"9245","OBJECT_NAME":"STARLINK-2428","INCLINATION":"53.0538","TLE_LINE2":"2 48099  53.0538 131.5924 0001641  70.6483 289.4683 15.06407223 92451","NORAD_CAT_ID":"48099","EPOCH":"2022-12-01T17:08:51.071136","SITE":"AFETR","PERIAPSIS":"546.055","ARG_OF_PERICENTER":"70.6483","ELEMENT_SET_NO":"999","MEAN_MOTION_DDOT":"0.0000000000000","COUNTRY_CODE":"US","RCS_SIZE":"LARGE","TLE_LINE1":"1 48099U 21027H   22335.71447999  .00003323  00000-0  24181-3 0  9997","MEAN_ELEMENT_THEORY":"SGP4","SEMIMAJOR_AXIS":"6925.326","ECCENTRICITY":"0.00016410","CENTER_NAME":"EARTH","LAUNCH_DATE":"2021-04-07","APOAPSIS":"548.328","RA_OF_ASC_NODE":"131.5924","GP_ID":"219304759","MEAN_ANOMALY":"289.4683","MEAN_MOTION":"15.06407223","OBJECT_ID":"2021-027H","OBJECT_TYPE":"PAYLOAD"},{"INCLINATION":"53.0539","PERIOD":"95.592","FILE":"3678231","REV_AT_EPOCH":"9275","OBJECT_NAME":"STARLINK-2430","CLASSIFICATION_TYPE":"U","ARG_OF_PERICENTER":"58.6199","PERIAPSIS":"545.803","SITE":"AFETR","NORAD_CAT_ID":"48100","EPOCH":"2022-12-01T19:24:12.079296","TLE_LINE2":"2 48100  53.0539 111.1615 0002059  58.6199 301.4992 15.06395054 92759","DECAY_DATE":null,"EPHEMERIS_TYPE":"0","MEAN_MOTION_DOT":"-0.00001035","TIME_SYSTEM":"UTC","REF_FRAME":"TEME","BSTAR":"-0.00005055100000","GP_ID":"219305005","RA_OF_ASC_NODE":"111.1615","APOAPSIS":"548.655","LAUNCH_DATE":"2021-04-07","CENTER_NAME":"EARTH","ECCENTRICITY":"0.00020590","OBJECT_TYPE":"PAYLOAD","OBJECT_ID":"2021-027J","MEAN_ANOMALY":"301.4992","MEAN_MOTION":"15.06395054","TLE_LINE1":"1 48100U 21027J   22335.80847314 -.00001035  00000-0 -50551-4 0  9996","RCS_SIZE":"LARGE","MEAN_MOTION_DDOT":"0.0000000000000","COUNTRY_CODE":"US","ELEMENT_SET_NO":"999","SEMIMAJOR_AXIS":"6925.364","MEAN_ELEMENT_THEORY":"SGP4"},{"ELEMENT_SET_NO":"999","MEAN_MOTION_DDOT":"0.0000000000000","COUNTRY_CODE":"US","RCS_SIZE":"LARGE","TLE_LINE1":"1 48101U 21027K   22335.46013135  .00000285  00000-0  38036-4 0  9993","MEAN_ELEMENT_THEORY":"SGP4","SEMIMAJOR_AXIS":"6925.371","ECCENTRICITY":"0.00015470","CENTER_NAME":"EARTH","LAUNCH_DATE":"2021-04-07","APOAPSIS":"548.307","RA_OF_ASC_NODE":"122.7304","GP_ID":"219265711","MEAN_MOTION":"15.06392640","MEAN_ANOMALY":"287.7806","OBJECT_ID":"2021-027K","OBJECT_TYPE":"PAYLOAD","REF_FRAME":"TEME","TIME_SYSTEM":"UTC","MEAN_MOTION_DOT":"0.00000285","DECAY_DATE":null,"EPHEMERIS_TYPE":"0","BSTAR":"0.00003803600000","CLASSIFICATION_TYPE":"U","FILE":"3677495","PERIOD":"95.593","REV_AT_EPOCH":"9256","OBJECT_NAME":"STARLINK-2436","INCLINATION":"53.0544","TLE_LINE2":"2 48101  53.0544 122.7304 0001547  72.3352 287.7806 15.06392640 92561","NORAD_CAT_ID":"48101","EPOCH":"2022-12-01T11:02:35.348640","SITE":"AFETR","ARG_OF_PERICENTER":"72.3352","PERIAPSIS":"546.165"},{"SEMIMAJOR_AXIS":"6925.361","MEAN_ELEMENT_THEORY":"SGP4","RCS_SIZE":"LARGE","TLE_LINE1":"1 48102U 21027L   22335.76792473  .00001221  00000-0  10086-3 0  9991","ELEMENT_SET_NO":"999","COUNTRY_CODE":"US","MEAN_MOTION_DDOT":"0.0000000000000","OBJECT_ID":"2021-027L","OBJECT_TYPE":"PAYLOAD","MEAN_MOTION":"15.06395841","MEAN_ANOMALY":"292.3762","GP_ID":"219273202","ECCENTRICITY":"0.00013660","CENTER_NAME":"EARTH","LAUNCH_DATE":"2021-04-07","RA_OF_ASC_NODE":"111.3411","APOAPSIS":"548.172","BSTAR":"0.00010086000000","MEAN_MOTION_DOT":"0.00001221","EPHEMERIS_TYPE":"0","DECAY_DATE":null,"REF_FRAME":"TEME","TIME_SYSTEM":"UTC","SITE":"AFETR","ARG_OF_PERICENTER":"67.7372","PERIAPSIS":"546.280","TLE_LINE2":"2 48102  53.0536 111.3411 0001366  67.7372 292.3762 15.06395841 92340","NORAD_CAT_ID":"48102","EPOCH":"2022-12-01T18:25:48.696672","INCLINATION":"53.0536","CLASSIFICATION_TYPE":"U","PERIOD":"95.592","FILE":"3677652","OBJECT_NAME":"STARLINK-2437","REV_AT_EPOCH":"9234"},{"MEAN_MOTION":"15.06399915","MEAN_ANOMALY":"289.1141","OBJECT_ID":"2021-027M","OBJECT_TYPE":"PAYLOAD","LAUNCH_DATE":"2021-04-07","APOAPSIS":"548.275","RA_OF_ASC_NODE":"111.3315","ECCENTRICITY":"0.00015320","CENTER_NAME":"EARTH","GP_ID":"219273209","MEAN_ELEMENT_THEORY":"SGP4","SEMIMAJOR_AXIS":"6925.349","ELEMENT_SET_NO":"999","COUNTRY_CODE":"US","MEAN_MOTION_DDOT":"0.0000000000000","TLE_LINE1":"1 48103U 21027M   22335.77804379 -.00000126  00000-0  10463-4 0  9996","RCS_SIZE":"MEDIUM","NORAD_CAT_ID":"48103","EPOCH":"2022-12-01T18:40:22.983456","TLE_LINE2":"2 48103  53.0553 111.3315 0001532  71.0014 289.1141 15.06399915 92340","ARG_OF_PERICENTER":"71.0014","PERIAPSIS":"546.153","SITE":"AFETR","CLASSIFICATION_TYPE":"U","FILE":"3677637","PERIOD":"95.592","OBJECT_NAME":"STARLINK-2438","REV_AT_EPOCH":"9234","INCLINATION":"53.0553","BSTAR":"0.00001046300000","REF_FRAME":"TEME","TIME_SYSTEM":"UTC","DECAY_DATE":null,"EPHEMERIS_TYPE":"0","MEAN_MOTION_DOT":"-0.00000126"},{"TLE_LINE2":"2 48104  53.0548 117.1466 0000583  75.7726 284.3328 15.06434153 92654","NORAD_CAT_ID":"48104","EPOCH":"2022-12-01T14:07:39.580320","SITE":"AFETR","PERIAPSIS":"546.705","ARG_OF_PERICENTER":"75.7726","CLASSIFICATION_TYPE":"U","FILE":"3678231","OBJECT_NAME":"STARLINK-2439","PERIOD":"95.590","REV_AT_EPOCH":"9265","INCLINATION":"53.0548","BSTAR":"0.00037858000000","REF_FRAME":"TEME","TIME_SYSTEM":"UTC","MEAN_MOTION_DOT":"0.00005367","DECAY_DATE":null,"EPHEMERIS_TYPE":"0","MEAN_MOTION":"15.06434153","MEAN_ANOMALY":"284.3328","OBJECT_ID":"2021-027N","OBJECT_TYPE":"PAYLOAD","CENTER_NAME":"EARTH","ECCENTRICITY":"0.00005830","LAUNCH_DATE":"2021-04-07","RA_OF_ASC_NODE":"117.1466","APOAPSIS":"547.513","GP_ID":"219304506","MEAN_ELEMENT_THEORY":"SGP4","SEMIMAJOR_AXIS":"6925.244","ELEMENT_SET_NO":"999","MEAN_MOTION_DDOT":"0.0000000000000","COUNTRY_CODE":"US","RCS_SIZE":"LARGE","TLE_LINE1":"1 48104U 21027N   22335.58865255  .00005367  00000-0  37858-3 0  9993"},{"PERIAPSIS":"546.201","ARG_OF_PERICENTER":"60.6091","SITE":"AFETR","EPOCH":"2022-11-30T23:10:03.205632","NORAD_CAT_ID":"48105","TLE_LINE2":"2 48105  53.0559  64.9499 0001460  60.6091 299.5044 15.06400514 93327","INCLINATION":"53.0559","FILE":"3677495","OBJECT_NAME":"STARLINK-2440","PERIOD":"95.592","REV_AT_EPOCH":"9332","CLASSIFICATION_TYPE":"U","BSTAR":"0.00009416600000","EPHEMERIS_TYPE":"0","DECAY_DATE":null,"MEAN_MOTION_DOT":"0.00001121","TIME_SYSTEM":"UTC","REF_FRAME":"TEME","OBJECT_TYPE":"PAYLOAD","OBJECT_ID":"2021-027P","MEAN_MOTION":"15.06400514","MEAN_ANOMALY":"299.5044","GP_ID":"219265212","APOAPSIS":"548.223","RA_OF_ASC_NODE":"64.9499","LAUNCH_DATE":"2021-04-07","ECCENTRICITY":"0.00014600","CENTER_NAME":"EARTH","SEMIMAJOR_AXIS":"6925.347","MEAN_ELEMENT_THEORY":"SGP4","TLE_LINE1":"1 48105U 21027P   22334.96531488  .00001121  00000-0  94166-4 0  9993","RCS_SIZE":"LARGE","MEAN_MOTION_DDOT":"0.0000000000000","COUNTRY_CODE":"US","ELEMENT_SET_NO":"999"},{"SEMIMAJOR_AXIS":"6925.349","MEAN_ELEMENT_THEORY":"SGP4","RCS_SIZE":"LARGE","TLE_LINE1":"1 48106U 21027Q   22335.41407599  .00000413  00000-0  46597-4 0  9998","ELEMENT_SET_NO":"999","COUNTRY_CODE":"US","MEAN_MOTION_DDOT":"0.0000000000000","OBJECT_ID":"2021-027Q","OBJECT_TYPE":"PAYLOAD","MEAN_MOTION":"15.06399886","MEAN_ANOMALY":"286.7003","GP_ID":"219266463","CENTER_NAME":"EARTH","ECCENTRICITY":"0.00016460","LAUNCH_DATE":"2021-04-07","RA_OF_ASC_NODE":"112.9507","APOAPSIS":"548.354","BSTAR":"0.00004659700000","MEAN_MOTION_DOT":"0.00000413","EPHEMERIS_TYPE":"0","DECAY_DATE":null,"REF_FRAME":"TEME","TIME_SYSTEM":"UTC","SITE":"AFETR","PERIAPSIS":"546.074","ARG_OF_PERICENTER":"73.4167","TLE_LINE2":"2 48106  53.0550 112.9507 0001646  73.4167 286.7003 15.06399886 92696","NORAD_CAT_ID":"48106","EPOCH":"2022-12-01T09:56:16.165536","INCLINATION":"53.0550","CLASSIFICATION_TYPE":"U","PERIOD":"95.592","FILE":"3677495","OBJECT_NAME":"STARLINK-2442","REV_AT_EPOCH":"9269"},{"RCS_SIZE":"LARGE","TLE_LINE1":"1 48107U 21027R   22335.36247420  .00005491  00000-0  38755-3 0  9995","ELEMENT_SET_NO":"999","COUNTRY_CODE":"US","MEAN_MOTION_DDOT":"0.0000000000000","SEMIMAJOR_AXIS":"6925.430","MEAN_ELEMENT_THEORY":"SGP4","GP_ID":"219273225","CENTER_NAME":"EARTH","ECCENTRICITY":"0.00022710","LAUNCH_DATE":"2021-04-07","RA_OF_ASC_NODE":"113.1706","APOAPSIS":"548.868","OBJECT_ID":"2021-027R","OBJECT_TYPE":"PAYLOAD","MEAN_ANOMALY":"257.5516","MEAN_MOTION":"15.06373396","MEAN_MOTION_DOT":"0.00005491","DECAY_DATE":null,"EPHEMERIS_TYPE":"0","REF_FRAME":"TEME","TIME_SYSTEM":"UTC","BSTAR":"0.00038755000000","INCLINATION":"53.0548","CLASSIFICATION_TYPE":"U","OBJECT_NAME":"STARLINK-2443","FILE":"3677638","PERIOD":"95.594","REV_AT_EPOCH":"9228","SITE":"AFETR","ARG_OF_PERICENTER":"102.5727","PERIAPSIS":"545.722","TLE_LINE2":"2 48107  53.0548 113.1706 0002271 102.5727 257.5516 15.06373396 92287","NORAD_CAT_ID":"48107","EPOCH":"2022-12-01T08:41:57.770880"}];
